CTC1_L_00539001-01
1 23468U 26563UA  26037.47809028  .00000000  00000+0  00000-0 0  9990
2 23468  99.5000   0.0000 0000000   0.0000   0.0000 13.56072426    15
CTC1_L_00539001-02
1 23469U 22234AK  26037.47809028  .00000000  00000+0  00000-0 0  9992
2 23469  99.5000   0.0000 0000000   0.0000  45.0000 13.56072426    15
CTC1_L_00539001-03
1 23470U 24280DY  26037.47809028  .00000000  00000+0  00000-0 0  9997
2 23470  99.5000   0.0000 0000000   0.0000  90.0000 13.56072426    17
CTC1_L_00539001-04
1 23471U 24655B   26037.47809028  .00000000  00000+0  00000-0 0  9994
2 23471  99.5000   0.0000 0000000   0.0000 135.0000 13.56072426    18
CTC1_L_00539001-05
1 23472U 24968HS  26037.47809028  .00000000  00000+0  00000-0 0  9992
2 23472  99.5000   0.0000 0000000   0.0000 180.0000 13.56072426    19
CTC1_L_00539001-06
1 23473U 23831SW  26037.47809028  .00000000  00000+0  00000-0 0  9991
2 23473  99.5000   0.0000 0000000   0.0000 225.0000 13.56072426    10
CTC1_L_00539001-07
1 23474U 25711FL  26037.47809028  .00000000  00000+0  00000-0 0  9991
2 23474  99.5000   0.0000 0000000   0.0000 270.0000 13.56072426    11
CTC1_L_00539001-08
1 23475U 26133ZM  26037.47809028  .00000000  00000+0  00000-0 0  9991
2 23475  99.5000   0.0000 0000000   0.0000 315.0000 13.56072426    12
CTC1_L_00539002-01
1 23476U 24447ZP  26037.47809028  .00000000  00000+0  00000-0 0  9998
2 23476  99.5000  12.0000 0000000   0.0000   6.0000 13.56072426    13
CTC1_L_00539002-02
1 23477U 26067UY  26037.47809028  .00000000  00000+0  00000-0 0  9999
2 23477  99.5000  12.0000 0000000   0.0000  51.0000 13.56072426    14
CTC1_L_00539002-03
1 23478U 26396HE  26037.47809028  .00000000  00000+0  00000-0 0  9995
2 23478  99.5000  12.0000 0000000   0.0000  96.0000 13.56072426    14
CTC1_L_00539002-04
1 23479U 24719ZN  26037.47809028  .00000000  00000+0  00000-0 0  9993
2 23479  99.5000  12.0000 0000000   0.0000 141.0000 13.56072426    16
CTC1_L_00539002-05
1 23480U 22371UJ  26037.47809028  .00000000  00000+0  00000-0 0  9997
2 23480  99.5000  12.0000 0000000   0.0000 186.0000 13.56072426    17
CTC1_L_00539002-06
1 23481U 22632JK  26037.47809028  .00000000  00000+0  00000-0 0  9998
2 23481  99.5000  12.0000 0000000   0.0000 231.0000 13.56072426    19
CTC1_L_00539002-07
1 23482U 26847EW  26037.47809028  .00000000  00000+0  00000-0 0  9991
2 23482  99.5000  12.0000 0000000   0.0000 276.0000 13.56072426    19
CTC1_L_00539002-08
1 23483U 22739PX  26037.47809028  .00000000  00000+0  00000-0 0  9998
2 23483  99.5000  12.0000 0000000   0.0000 321.0000 13.56072426    11
CTC1_L_00539003-01
1 23484U 26257RC  26037.47809028  .00000000  00000+0  00000-0 0  9998
2 23484  99.5000  24.0000 0000000   0.0000  12.0000 13.56072426    12
CTC1_L_00539003-02
1 23485U 22968DD  26037.47809028  .00000000  00000+0  00000-0 0  9994
2 23485  99.5000  24.0000 0000000   0.0000  57.0000 13.56072426    12
CTC1_L_00539003-03
1 23486U 25939WZ  26037.47809028  .00000000  00000+0  00000-0 0  9996
2 23486  99.5000  24.0000 0000000   0.0000 102.0000 13.56072426    14
CTC1_L_00539003-04
1 23487U 23336VN  26037.47809028  .00000000  00000+0  00000-0 0  9996
2 23487  99.5000  24.0000 0000000   0.0000 147.0000 13.56072426    14
CTC1_L_00539003-05
1 23488U 26459EG  26037.47809028  .00000000  00000+0  00000-0 0  9996
2 23488  99.5000  24.0000 0000000   0.0000 192.0000 13.56072426    15
CTC1_L_00539003-06
1 23489U 26791PV  26037.47809028  .00000000  00000+0  00000-0 0  9996
2 23489  99.5000  24.0000 0000000   0.0000 237.0000 13.56072426    16
CTC1_L_00539003-07
1 23490U 22097UM  26037.47809028  .00000000  00000+0  00000-0 0  9993
2 23490  99.5000  24.0000 0000000   0.0000 282.0000 13.56072426    18
CTC1_L_00539003-08
1 23491U 22772RD  26037.47809028  .00000000  00000+0  00000-0 0  9994
2 23491  99.5000  24.0000 0000000   0.0000 327.0000 13.56072426    19
CTC1_L_00539004-01
1 23492U 25736EZ  26037.47809028  .00000000  00000+0  00000-0 0  9998
2 23492  99.5000  36.0000 0000000   0.0000  18.0000 13.56072426    10
CTC1_L_00539004-02
1 23493U 25923R   26037.47809028  .00000000  00000+0  00000-0 0  9997
2 23493  99.5000  36.0000 0000000   0.0000  63.0000 13.56072426    11
CTC1_L_00539004-03
1 23494U 23841UZ  26037.47809028  .00000000  00000+0  00000-0 0  9995
2 23494  99.5000  36.0000 0000000   0.0000 108.0000 13.56072426    12
CTC1_L_00539004-04
1 23495U 23659GE  26037.47809028  .00000000  00000+0  00000-0 0  9993
2 23495  99.5000  36.0000 0000000   0.0000 153.0000 13.56072426    13
CTC1_L_00539004-05
1 23496U 25432HS  26037.47809028  .00000000  00000+0  00000-0 0  9995
2 23496  99.5000  36.0000 0000000   0.0000 198.0000 13.56072426    13
CTC1_L_00539004-06
1 23497U 22433IZ  26037.47809028  .00000000  00000+0  00000-0 0  9994
2 23497  99.5000  36.0000 0000000   0.0000 243.0000 13.56072426    15
CTC1_L_00539004-07
1 23498U 24061ZQ  26037.47809028  .00000000  00000+0  00000-0 0  9994
2 23498  99.5000  36.0000 0000000   0.0000 288.0000 13.56072426    15
CTC1_L_00539004-08
1 23499U 23532EU  26037.47809028  .00000000  00000+0  00000-0 0  9997
2 23499  99.5000  36.0000 0000000   0.0000 333.0000 13.56072426    17
CTC1_L_00539005-01
1 23500U 22413UA  26037.47809028  .00000000  00000+0  00000-0 0  9997
2 23500  99.5000  48.0000 0000000   0.0000  24.0000 13.56072426    10
CTC1_L_00539005-02
1 23501U 23692V   26037.47809028  .00000000  00000+0  00000-0 0  9998
2 23501  99.5000  48.0000 0000000   0.0000  69.0000 13.56072426    10
CTC1_L_00539005-03
1 23502U 22768TT  26037.47809028  .00000000  00000+0  00000-0 0  9992
2 23502  99.5000  48.0000 0000000   0.0000 114.0000 13.56072426    12
CTC1_L_00539005-04
1 23503U 26324VI  26037.47809028  .00000000  00000+0  00000-0 0  9995
2 23503  99.5000  48.0000 0000000   0.0000 159.0000 13.56072426    12
CTC1_L_00539005-05
1 23504U 23101JG  26037.47809028  .00000000  00000+0  00000-0 0  9996
2 23504  99.5000  48.0000 0000000   0.0000 204.0000 13.56072426    14
CTC1_L_00539005-06
1 23505U 23392TC  26037.47809028  .00000000  00000+0  00000-0 0  9999
2 23505  99.5000  48.0000 0000000   0.0000 249.0000 13.56072426    14
CTC1_L_00539005-07
1 23506U 22792YB  26037.47809028  .00000000  00000+0  00000-0 0  9993
2 23506  99.5000  48.0000 0000000   0.0000 294.0000 13.56072426    15
CTC1_L_00539005-08
1 23507U 22300ZB  26037.47809028  .00000000  00000+0  00000-0 0  9999
2 23507  99.5000  48.0000 0000000   0.0000 339.0000 13.56072426    16
CTC1_L_00539006-01
1 23508U 25420GB  26037.47809028  .00000000  00000+0  00000-0 0  9996
2 23508  99.5000  60.0000 0000000   0.0000  30.0000 13.56072426    19
CTC1_L_00539006-02
1 23509U 26085EO  26037.47809028  .00000000  00000+0  00000-0 0  9995
2 23509  99.5000  60.0000 0000000   0.0000  75.0000 13.56072426    19
CTC1_L_00539006-03
1 23510U 26159AS  26037.47809028  .00000000  00000+0  00000-0 0  9999
2 23510  99.5000  60.0000 0000000   0.0000 120.0000 13.56072426    12
CTC1_L_00539006-04
1 23511U 26482WU  26037.47809028  .00000000  00000+0  00000-0 0  9999
2 23511  99.5000  60.0000 0000000   0.0000 165.0000 13.56072426    12
CTC1_L_00539006-05
1 23512U 22530KC  26037.47809028  .00000000  00000+0  00000-0 0  9990
2 23512  99.5000  60.0000 0000000   0.0000 210.0000 13.56072426    14
CTC1_L_00539006-06
1 23513U 25498LL  26037.47809028  .00000000  00000+0  00000-0 0  9997
2 23513  99.5000  60.0000 0000000   0.0000 255.0000 13.56072426    14
CTC1_L_00539006-07
1 23514U 23125GK  26037.47809028  .00000000  00000+0  00000-0 0  9993
2 23514  99.5000  60.0000 0000000   0.0000 300.0000 13.56072426    16
CTC1_L_00539006-08
1 23515U 23436FP  26037.47809028  .00000000  00000+0  00000-0 0  9999
2 23515  99.5000  60.0000 0000000   0.0000 345.0000 13.56072426    16
CTC1_L_00539007-01
1 23516U 22247IP  26037.47809028  .00000000  00000+0  00000-0 0  9999
2 23516  99.5000  72.0000 0000000   0.0000  36.0000 13.56072426    17
CTC1_L_00539007-02
1 23517U 25560KS  26037.47809028  .00000000  00000+0  00000-0 0  9991
2 23517  99.5000  72.0000 0000000   0.0000  81.0000 13.56072426    18
CTC1_L_00539007-03
1 23518U 22600KF  26037.47809028  .00000000  00000+0  00000-0 0  9994
2 23518  99.5000  72.0000 0000000   0.0000 126.0000 13.56072426    19
CTC1_L_00539007-04
1 23519U 22099KK  26037.47809028  .00000000  00000+0  00000-0 0  9997
2 23519  99.5000  72.0000 0000000   0.0000 171.0000 13.56072426    10
CTC1_L_00539007-05
1 23520U 22659ST  26037.47809028  .00000000  00000+0  00000-0 0  9991
2 23520  99.5000  72.0000 0000000   0.0000 216.0000 13.56072426    12
CTC1_L_00539007-06
1 23521U 25321FC  26037.47809028  .00000000  00000+0  00000-0 0  9991
2 23521  99.5000  72.0000 0000000   0.0000 261.0000 13.56072426    13
CTC1_L_00539007-07
1 23522U 22300MY  26037.47809028  .00000000  00000+0  00000-0 0  9996
2 23522  99.5000  72.0000 0000000   0.0000 306.0000 13.56072426    14
CTC1_L_00539007-08
1 23523U 25825HM  26037.47809028  .00000000  00000+0  00000-0 0  9992
2 23523  99.5000  72.0000 0000000   0.0000 351.0000 13.56072426    15
CTC1_L_00539008-01
1 23524U 23682SV  26037.47809028  .00000000  00000+0  00000-0 0  9992
2 23524  99.5000  84.0000 0000000   0.0000  42.0000 13.56072426    16
CTC1_L_00539008-02
1 23525U 23001ZN  26037.47809028  .00000000  00000+0  00000-0 0  9998
2 23525  99.5000  84.0000 0000000   0.0000  87.0000 13.56072426    16
CTC1_L_00539008-03
1 23526U 23822M   26037.47809028  .00000000  00000+0  00000-0 0  9990
2 23526  99.5000  84.0000 0000000   0.0000 132.0000 13.56072426    18
CTC1_L_00539008-04
1 23527U 22488VQ  26037.47809028  .00000000  00000+0  00000-0 0  9998
2 23527  99.5000  84.0000 0000000   0.0000 177.0000 13.56072426    18
CTC1_L_00539008-05
1 23528U 26577LH  26037.47809028  .00000000  00000+0  00000-0 0  9992
2 23528  99.5000  84.0000 0000000   0.0000 222.0000 13.56072426    10
CTC1_L_00539008-06
1 23529U 25436ZJ  26037.47809028  .00000000  00000+0  00000-0 0  9996
2 23529  99.5000  84.0000 0000000   0.0000 267.0000 13.56072426    10
